     2.100          NAVIGATION                              RINEX VERSION / TYPE
fic2rin                                 05/21/2015 00:14:02 PGM / RUN BY / DATE
                                                            END OF HEADER
16 15  5 21  0  0  0.0 -.127160921693D-03  .375166564481D-11  .000000000000D+00
     .870000000000D+02 -.682812500000D+02  .410731394325D-08 -.197813157911D+01
    -.384263694286D-05  .819048495032D-02  .270828604698D-05  .515355868149D+04
     .345600000000D+06  .109896063805D-06  .244504919679D+01 -.160187482834D-06
     .990253279658D+00  .341968750000D+03  .298879080462D+00 -.808247952486D-08
     .357157734196D-12  .100000000000D+01  .184500000000D+04  .000000000000D+00
     .340000000000D+01  .000000000000D+00 -.102445483208D-07  .870000000000D+02
     .338406000000D+06  .400000000000D+01
17 15  5 21  0  0  0.0 -.172137282789D-03 -.181898940355D-11  .000000000000D+00
     .860000000000D+02 -.103187500000D+03  .404266839337D-08 -.290627646690D+01
    -.524520874023D-05  .100926182931D-01  .110790133476D-04  .515377521706D+04
     .345600000000D+06  .203028321266D-06 -.281187145204D+01 -.134110450745D-06
     .972719469167D+00  .167187500000D+03 -.200827872048D+01 -.762888920243D-08
     .389301930274D-10  .100000000000D+01  .184500000000D+04  .000000000000D+00
     .240000000000D+01  .000000000000D+00 -.107102096081D-07  .860000000000D+02
     .338406000000D+06  .400000000000D+01
18 15  5 21  0  0  0.0  .403007492423D-03  .295585778076D-11  .000000000000D+00
     .107000000000D+03 -.715625000000D+01  .566952187263D-08 -.140255637502D+01
    -.266358256340D-06  .162277409108D-01  .508315861225D-05  .515359429550D+04
     .345600000000D+06  .318512320518D-06 -.781770849242D+00  .320374965668D-06
     .924935589314D+00  .261656250000D+03 -.196277813244D+01 -.855035615665D-08
    -.355014787791D-09  .100000000000D+01  .184500000000D+04  .000000000000D+00
     .340000000000D+01  .000000000000D+00 -.111758708954D-07  .107000000000D+03
     .338406000000D+06  .400000000000D+01
19 15  5 21  0  0  0.0 -.511013437063D-03 -.113686837722D-11  .000000000000D+00
     .510000000000D+02 -.893125000000D+02  .411838583302D-08  .259192272531D+01
    -.470504164696D-05  .114057981409D-01  .107605010271D-04  .515373756790D+04
     .345600000000D+06 -.149011611938D-06 -.276227099074D+01 -.150874257088D-06
     .969772782038D+00  .177781250000D+03  .545948421217D+00 -.757817280417D-08
     .107861635727D-09  .100000000000D+01  .184500000000D+04  .000000000000D+00
     .240000000000D+01  .000000000000D+00 -.153668224812D-07  .510000000000D+02
     .338406000000D+06  .400000000000D+01
20 15  5 21  0  0  0.0  .321865081787D-03  .363797880709D-11  .000000000000D+00
     .380000000000D+02 -.900000000000D+01  .562702010226D-08 -.303326452803D+01
    -.432133674622D-06  .562261336017D-02  .517815351486D-05  .515580240059D+04
     .345600000000D+06  .465661287308D-07 -.834196856356D+00 -.745058059692D-08
     .926077802103D+00  .260593750000D+03  .121729981427D+01 -.842213653008D-08
    -.265368196508D-09  .100000000000D+01  .184500000000D+04  .000000000000D+00
     .240000000000D+01  .000000000000D+00 -.838190317154D-08  .380000000000D+02
     .338406000000D+06  .400000000000D+01
21 15  5 21  0  0  0.0 -.447903294116D-03 -.352429196937D-11  .000000000000D+00
     .320000000000D+02  .130937500000D+02  .547558522296D-08 -.296601153166D+00
     .856816768646D-06  .225509954616D-01  .844523310661D-05  .515356083870D+04
     .345600000000D+06 -.167638063431D-06 -.182559678437D+01  .189989805222D-06
     .933561483886D+00  .204812500000D+03 -.190786074366D+01 -.880215235926D-08
     .421446126351D-09  .100000000000D+01  .184500000000D+04  .000000000000D+00
     .240000000000D+01  .000000000000D+00 -.116415321827D-07  .320000000000D+02
     .338406000000D+06  .400000000000D+01
23 15  5 21  0  0  0.0 -.109641347080D-03 -.250111042988D-11  .000000000000D+00
     .630000000000D+02  .398750000000D+02  .441661254107D-08  .220133404923D+01
     .202469527721D-05  .101811608765D-01  .110603868961D-04  .515362416458D+04
     .345600000000D+06 -.180676579475D-06  .289607516756D+00 -.186264514923D-07
     .948967992052D+00  .162343750000D+03 -.268401793589D+01 -.785925594098D-08
    -.392159192147D-09  .100000000000D+01  .184500000000D+04  .000000000000D+00
     .240000000000D+01  .000000000000D+00 -.200234353542D-07  .630000000000D+02
     .338406000000D+06  .400000000000D+01
24 15  5 21  0  0  0.0 -.486071221530D-04 -.682121026330D-12  .000000000000D+00
     .119000000000D+03  .120562500000D+03  .458840541122D-08  .144559273899D+01
     .609457492828D-05  .322649360169D-02  .597909092903D-05  .515368009949D+04
     .345600000000D+06  .130385160446D-07  .131640129648D+01  .260770320892D-07
     .953401954847D+00  .257781250000D+03  .364859330793D+00 -.829963142725D-08
     .306084178206D-09  .100000000000D+01  .184500000000D+04  .000000000000D+00
     .340000000000D+01  .000000000000D+00  .232830643654D-08  .119000000000D+03
     .338406000000D+06  .400000000000D+01
25 15  5 21  0  0  0.0 -.312370248139D-04 -.386535248253D-11  .000000000000D+00
     .970000000000D+02 -.479687500000D+02  .451411660250D-08 -.559378903028D+00
    -.236742198467D-05  .462081399746D-02  .187940895557D-05  .515367728424D+04
     .345600000000D+06  .223517417908D-07  .237981591974D+01  .100582838058D-06
     .978167361465D+00  .354843750000D+03  .721855675866D+00 -.835177645644D-08
    -.521450291926D-10  .100000000000D+01  .184500000000D+04  .000000000000D+00
     .240000000000D+01  .000000000000D+00  .558793544769D-08  .970000000000D+02
     .338406000000D+06  .400000000000D+01
27 15  5 21  0  0  0.0  .733686611056D-04  .272848410532D-11  .000000000000D+00
     .490000000000D+02 -.914375000000D+02  .420017495415D-08 -.283049515844D+01
    -.479817390442D-05  .246337824501D-02  .100545585155D-04  .515369941521D+04
     .345600000000D+06 -.838190317154D-07 -.285957538927D+01 -.149011611938D-07
     .967623391112D+00  .190843750000D+03  .209317611810D+00 -.776925219197D-08
     .271439877989D-10  .100000000000D+01  .184500000000D+04  .000000000000D+00
     .240000000000D+01  .000000000000D+00  .139698386192D-08  .490000000000D+02
     .338406000000D+06  .400000000000D+01
28 15  5 21  0  0  0.0  .441198702902D-03  .261479726760D-11  .000000000000D+00
     .580000000000D+02 -.770937500000D+02  .405195449445D-08 -.206402070060D+01
    -.362098217010D-05  .195334047312D-01  .198744237423D-05  .515369674683D+04
     .345600000000D+06  .212341547012D-06  .245040668075D+01  .156462192535D-06
     .988868548699D+00  .348406250000D+03 -.166370479255D+01 -.785318425950D-08
    -.678599694973D-11  .100000000000D+01  .184500000000D+04  .000000000000D+00
     .240000000000D+01  .000000000000D+00 -.111758708954D-07  .580000000000D+02
     .338406000000D+06  .400000000000D+01
29 15  5 21  0  0  0.0  .611706636846D-03  .227373675443D-11  .000000000000D+00
     .990000000000D+02 -.104500000000D+03  .416945938901D-08 -.262677794522D+00
    -.534951686859D-05  .128619198222D-02  .101644545794D-04  .515376754570D+04
     .345600000000D+06  .149011611938D-07 -.280251706815D+01 -.111758708954D-07
     .973560787503D+00  .193093750000D+03 -.602664093276D+00 -.778782439415D-08
     .767889128522D-10  .100000000000D+01  .184500000000D+04  .000000000000D+00
     .340000000000D+01  .000000000000D+00 -.977888703346D-08  .990000000000D+02
     .338406000000D+06  .400000000000D+01
30 15  5 21  0  0  0.0 -.566975213587D-04  .545696821064D-11  .000000000000D+00
     .115000000000D+03  .114343750000D+03  .456947605130D-08  .797278712761D+00
     .594928860664D-05  .140073406510D-02  .428035855293D-05  .515374456215D+04
     .345600000000D+06  .949949026108D-07  .140662393828D+01  .335276126862D-07
     .955891983321D+00  .295062500000D+03  .287316776638D+01 -.829784563858D-08
     .378230040514D-09  .100000000000D+01  .184500000000D+04  .000000000000D+00
     .240000000000D+01  .000000000000D+00  .325962901115D-08  .115000000000D+03
     .338406000000D+06  .400000000000D+01
31 15  5 21  0  0  0.0  .315326265991D-03 -.113686837722D-11  .000000000000D+00
     .770000000000D+02  .102562500000D+03  .417410243955D-08  .483579008195D+00
     .548735260963D-05  .809153716546D-02  .532716512680D-05  .515378591728D+04
     .345600000000D+06  .614672899246D-07  .136491100168D+01 -.147148966789D-06
     .975052942000D+00  .280656250000D+03 -.516144920765D+00 -.814891086342D-08
     .378230040514D-09  .100000000000D+01  .184500000000D+04  .000000000000D+00
     .240000000000D+01  .000000000000D+00 -.135041773319D-07  .770000000000D+02
     .338406000000D+06  .400000000000D+01
32 15  5 21  0  0  0.0 -.146129634231D-03  .966338120634D-11  .000000000000D+00
     .540000000000D+02 -.141875000000D+02  .509806949791D-08  .112279441397D+01
    -.691041350365D-06  .112492023036D-01  .586733222008D-05  .515376056671D+04
     .345600000000D+06  .204890966415D-07 -.679885853781D+00  .210478901863D-06
     .946895512582D+00  .257875000000D+03  .478389426268D-01 -.830391732006D-08
    -.530736393015D-09  .100000000000D+01  .184500000000D+04  .000000000000D+00
     .240000000000D+01  .000000000000D+00 -.372529029846D-08  .540000000000D+02
     .338406000000D+06  .400000000000D+01
29 15  5 20 23 59 44.0  .611705239862D-03  .227373675443D-11  .000000000000D+00
     .210000000000D+02 -.104500000000D+03  .416945938901D-08 -.265010658781D+00
    -.534951686859D-05  .128619116731D-02  .101644545794D-04  .515376755142D+04
     .345584000000D+06  .149011611938D-07 -.280251689407D+01 -.111758708954D-07
     .973560790429D+00  .193093750000D+03 -.602664900806D+00 -.778782439415D-08
     .767889128522D-10  .100000000000D+01  .184500000000D+04  .000000000000D+00
     .240000000000D+01  .000000000000D+00 -.977888703346D-08  .210000000000D+02
     .338466000000D+06  .400000000000D+01
